ION SCV-022             
1 66682U 25276S   26068.74520243  .00001950  00000+0  17277-3 0  9990
2 66682  97.5376 142.9780 0004539 154.7099 205.4346 14.97347265 15192
STARLINK-35856          
1 67013U 25293L   26068.81596626  .00005002  00000+0  42668-3 0  9998
2 67013  70.0021  94.2635 0002855 271.6812  88.4020 14.98330046 14909
