[{"OBJECT_NAME":"ION SCV-022","OBJECT_ID":"2025-276S","EPOCH":"2026-03-09T17:53:05.489952","MEAN_MOTION":14.97347265,"ECCENTRICITY":0.00045393,"INCLINATION":97.5376,"RA_OF_ASC_NODE":142.978,"ARG_OF_PERICENTER":154.7099,"MEAN_ANOMALY":205.4346,"EPHEMERIS_TYPE":0,"CLASSIFICATION_TYPE":"U","NORAD_CAT_ID":66682,"ELEMENT_SET_NO":999,"REV_AT_EPOCH":1519,"BSTAR":0.00017276803,"MEAN_MOTION_DOT":1.95e-5,"MEAN_MOTION_DDOT":0},{"OBJECT_NAME":"STARLINK-35856","OBJECT_ID":"2025-293L","EPOCH":"2026-03-09T19:34:59.485728","MEAN_MOTION":14.98330046,"ECCENTRICITY":0.00028552,"INCLINATION":70.0021,"RA_OF_ASC_NODE":94.2635,"ARG_OF_PERICENTER":271.6812,"MEAN_ANOMALY":88.402,"EPHEMERIS_TYPE":0,"CLASSIFICATION_TYPE":"U","NORAD_CAT_ID":67013,"ELEMENT_SET_NO":999,"REV_AT_EPOCH":1490,"BSTAR":0.00042668337,"MEAN_MOTION_DOT":5.002e-5,"MEAN_MOTION_DDOT":0}]
